HAWK-C                  
1 43799U 18099AT  26068.67261865  .00009431  00000+0  35663-3 0  9994
2 43799  97.4027 122.6817 0040363 277.4052  82.2601 15.26407167398720
STARLINK-32488          
1 62125U 24222M   26068.55036956  .00020377  00000+0  74784-3 0  9990
2 62125  43.0010 137.3160 0002541 283.8149  76.2420 15.27583991 72622
